Beidou
beidou
BEIDOU G1               
1 36287U 10001A   17274.87843089 -.00000293  00000-0  00000+0 0  9990
2 36287   1.4767   6.7564 0003952 169.6106 290.5860  1.00277072 28285
BEIDOU G3               
1 36590U 10024A   17275.01079296 -.00000365  00000-0  00000+0 0  9990
2 36590   1.4195  28.7219 0006275 312.1013 144.4704  1.00277422 26899
BEIDOU IGSO 1           
1 36828U 10036A   17274.87011902 -.00000180  00000-0  10000-3 0  9990
2 36828  54.1684 192.4475 0061347 229.2047  18.7044  1.00297034 26329
BEIDOU G4               
1 37210U 10057A   17275.20572553 -.00000121  00000-0  00000+0 0  9991
2 37210   0.8752  52.5452 0006773 169.7902  22.8865  1.00273212 25395
BEIDOU IGSO 2           
1 37256U 10068A   17274.93774792 -.00000180  00000-0  10000-3 0  9991
2 37256  52.9837 310.0145 0059739 206.6019 308.8327  1.00252221 24912
BEIDOU IGSO 3           
1 37384U 11013A   17274.88898688 -.00000129  00000-0  10000-3 0  9992
2 37384  57.9649  71.8193 0031805 200.9337 179.0540  1.00285763 23796
BEIDOU IGSO 4           
1 37763U 11038A   17275.23281932 -.00000117  00000-0  10000-3 0  9995
2 37763  54.4759 194.8220 0048770 217.4696 135.9562  1.00292015 22756
BEIDOU IGSO 5           
1 37948U 11073A   17274.51610256 -.00000121  00000-0  10000-3 0  9999
2 37948  53.0656 309.5031 0051905 207.9791 133.8700  1.00269859 21504
BEIDOU G5               
1 38091U 12008A   17274.86795765  .00000047  00000-0  00000-0 0  9997
2 38091   2.3922  57.9155 0003701 209.9321 114.0755  1.00270799 20583
BEIDOU M3               
1 38250U 12018A   17274.94898856 -.00000033  00000-0  10000-3 0  9999
2 38250  56.3120  50.5659 0023518 220.9849 239.0198  1.86234385 37068
BEIDOU M4               
1 38251U 12018B   17274.79864772 -.00000034  00000-0  10000-3 0  9994
2 38251  56.2479  49.9978 0026027 215.5743 191.5496  1.86233686 37068
BEIDOU M6               
1 38775U 12050B   17274.92129067 -.00000002  00000-0  00000-0 0  9998
2 38775  54.8514 169.6844 0020542 236.6577  88.7234  1.86233061 34432
BEIDOU G6               
1 38953U 12059A   17274.94521051 -.00000186  00000-0  00000-0 0  9999
2 38953   1.8700  79.9798 0006072 163.0602 192.1315  1.00271999 18153
BEIDOU I1-S             
1 40549U 15019A   17275.10044213 -.00000158  00000-0  00000+0 0  9999
2 40549  54.2933 332.5561 0043132 190.6174 339.8941  1.00272003  9197
BEIDOU-3 M1             
1 40748U 15037A   17274.72062293 -.00000036  00000-0  00000-0 0  9991
2 40748  55.5184  49.9000 0005349 248.4663  17.5140  1.86231332 14887
BEIDOU-3 M2             
1 40749U 15037B   17274.68813949 -.00000036  00000-0  00000+0 0  9998
2 40749  55.5195  49.8885 0005778 272.8412 107.7648  1.86232474 14882
BEIDOU I2-S             
1 40938U 15053A   17275.07663338 -.00000099  00000-0  00000+0 0  9994
2 40938  54.0587 295.4631 0048246 178.2829  21.0234  1.00271296  7474
BEIDOU M3-S             
1 41315U 16006A   17273.99379758 -.00000012  00000-0  00000+0 0  9997
2 41315  55.0358 169.9648 0002664 316.6275 334.2650  1.86230620 11343
BEIDOU IGSO 6           
1 41434U 16021A   17274.95957582 -.00000093  00000-0  10000-3 0  9994
2 41434  55.6858  71.2257 0031863 178.2314 202.5324  1.00285985  5603
BEIDOU G7               
1 41586U 16037A   17274.46642592 -.00000260  00000-0  00000+0 0  9998
2 41586   1.0816 323.5797 0003068 262.7882  96.4466  1.00275874  4902
